GSAT0203 (GALILEO 7)    
1 40544U 15017A   22230.21014221 -.00000092  00000+0  00000+0 0  9993
2 40544  56.8151  19.6840 0002015 208.5575 151.4335  1.70475772 45352
GSAT0204 (GALILEO 8)    
1 40545U 15017B   22232.22272339 -.00000089  00000+0  00000+0 0  9999
2 40545  56.8204  19.6419 0002804 190.8654 169.1326  1.70475844  8435
IRNSS-1D                
1 40547U 15018A   22233.77309039 -.00000254  00000+0  00000+0 0  9995
2 40547  28.8426 264.0416 0020584 192.1861 263.8681  1.00277109 27002
BEIDOU 17               
1 40549U 15019A   22234.17589992 -.00000170  00000+0  00000+0 0  9998
2 40549  51.7724 311.9946 0038102 195.4800 341.7183  1.00283321 27099
GONETS-M 11             
1 40552U 15020A   22233.82603496  .00000022  00000+0  88588-4 0  9998
2 40552  82.4886 180.3751 0016072 162.3848 197.7806 12.42892860335435
GONETS-M 12             
1 40553U 15020B   22233.80128518  .00000024  00000+0  10314-3 0  9997
2 40553  82.4916 181.1204 0014362 146.4483 213.7516 12.42883350335420
GONETS-M 13             
1 40554U 15020C   22233.77388454  .00000026  00000+0  11507-3 0  9998
2 40554  82.4877 180.2019 0013818 131.0604 229.1676 12.42862032335434
COSMOS 2504             
1 40555U 15020D   22233.90838789  .00000178  00000+0  56673-4 0  9997
2 40555  82.5153 228.0433 0616759 101.5783 265.5230 13.59580480360472
THOR 7                  
1 40613U 15022A   22233.79781819 -.00000013  00000+0  00000+0 0  9999
2 40613   0.0296 239.0440 0002504 272.9730 104.6241  1.00271307 26823
TURKMENALEM52E/MONACOSAT
1 40617U 15023A   22234.08382828  .00000099  00000+0  00000+0 0  9997
2 40617   0.0266 111.1307 0002245  44.8799 256.5416  1.00273913 26847
DIRECTV 15              
1 40663U 15026A   22233.99263601 -.00000107  00000+0  00000+0 0  9998
2 40663   0.0140 110.2075 0000619 249.9467 224.6103  1.00273164 26548
SKY MEXICO-1            
1 40664U 15026B   22233.85396472 -.00000239  00000+0  00000+0 0  9993
2 40664   0.0143  82.0581 0001961  88.6004  28.1448  1.00271718 26469
SENTINEL-2A             
1 40697U 15028A   22234.20766088  .00000068  00000+0  42634-4 0  9998
2 40697  98.5662 308.0510 0001251  89.9824 270.1511 14.30817900374251
COSMOS 2506             
1 40699U 15029A   22234.16035818  .00000068  00000+0  26939-4 0  9996
2 40699  98.2541 291.1470 0008485 146.5820 213.5923 14.53507168380189
GAOFEN 8                
1 40701U 15030A   22234.25152420  .00006110  00000+0  26000-3 0  9993
2 40701  97.5696   9.3491 0001423  98.9172 322.3316 15.23377007398407
DMC3-FM1                
1 40715U 15032A   22234.15466643  .00000314  00000+0  45963-4 0  9994
2 40715  97.8378 119.6554 0005027 318.4513  41.6320 14.82171190383027
DMC3-FM2                
1 40716U 15032B   22234.10999988  .00000321  00000+0  46850-4 0  9997
2 40716  97.8420 120.2879 0006994 318.0334  42.0351 14.82163269383022
DMC3-FM3                
1 40717U 15032C   22234.13185805  .00000324  00000+0  47223-4 0  9994
2 40717  97.8453 121.2486 0008898 314.0219  46.0271 14.82191396383024
CARBONITE 1 (CBNT-1)    
1 40718U 15032D   22234.11069694  .00000613  00000+0  96969-4 0  9992
2 40718  97.7298  95.5825 0016830 157.5840 202.6114 14.75475837383108
NAVSTAR 74 (USA 262)    
1 40730U 15033A   22233.70129710 -.00000089  00000+0  00000+0 0  9991
2 40730  55.1477 324.0517 0073941   7.7782 352.3752  2.00575070 52002
METEOSAT-11 (MSG-4)     
1 40732U 15034A   22233.79781819 -.00000011  00000+0  00000+0 0  9992
2 40732   0.4225  68.9463 0001280  36.3655 151.6518  1.00268633 26033
STAR ONE C4             
1 40733U 15034B   22233.60257539 -.00000269  00000+0  00000+0 0  9995
2 40733   0.0304 357.6817 0001160 190.9557 288.1867  1.00272339 26035
WGS F7 (USA 263)        
1 40746U 15036A   22233.76101965  .00000013  00000+0  00000+0 0  9995
2 40746   0.0100 125.3720 0000249  62.9120 230.7314  1.00271583 25878
BEIDOU 18               
1 40748U 15037A   22233.85059229 -.00000118  00000+0  00000+0 0  9990
2 40748  55.8433 349.5478 0002934  61.5346  28.5593  1.86233338 48131
BEIDOU 19               
1 40749U 15037B   22233.50518412 -.00000119  00000+0  00000+0 0  9998
2 40749  55.8468 349.5495 0002096 331.1759  21.5766  1.86232193 48113
INTELSAT 34 (IS-34)     
1 40874U 15039A   22233.55396719 -.00000290  00000+0  00000+0 0  9998
2 40874   0.0071 329.5882 0000847  46.1028  98.0943  1.00270711 25638
EUTELSAT 8 WEST B       
1 40875U 15039B   22233.79633580 -.00000070  00000+0  00000+0 0  9991
2 40875   0.0666  19.8633 0004274  93.3613 135.5324  1.00272029 25650
YAOGAN-27               
1 40878U 15040A   22234.07345593 -.00000005  00000+0  10000-3 0  9995
2 40878 100.1261 263.1030 0008391 189.0940 171.0019 13.15980431335664
GSAT-6                  
1 40880U 15041A   22233.87965917 -.00000165  00000+0  00000+0 0  9996
2 40880   0.0948 277.5863 0004327 241.9713 209.7993  1.00270538 25602
INMARSAT 5-F3           
1 40882U 15042A   22233.76197885  .00000045  00000+0  00000+0 0  9994
2 40882   0.0172 109.1487 0000159  22.5561 292.2424  1.00270596 25563
MUOS-4                  
1 40887U 15044A   22234.09355062 -.00000097  00000+0  00000+0 0  9999
2 40887   2.5593  10.2636 0051117 359.2405  69.6002  1.00272557 25564
GSAT0205 (GALILEO 9)    
1 40889U 15045A   22233.16314568  .00000046  00000+0  00000+0 0  9998
2 40889  55.5836 260.1750 0003361 349.8176  10.2385  1.70473715 43219
GSAT0206 (GALILEO 10)   
1 40890U 15045B   22232.79731607  .00000044  00000+0  00000+0 0  9993
2 40890  55.5825 260.1808 0002767 315.2035  44.8358  1.70474025 43233
TJS-1                   
1 40892U 15046A   22233.75709562 -.00000160  00000+0  00000+0 0  9998
2 40892   0.0289 126.5779 0002541 229.2701  41.7604  1.00273361 25569
GAOFEN 9-01             
1 40894U 15047A   22234.14025356  .00000373  00000+0  60666-4 0  9991
2 40894  97.8131 302.3476 0032827 359.8031   0.3173 14.76308338373877
EXPRESS-AM8             
1 40895U 15048A   22233.07062965 -.00000116  00000+0  00000+0 0  9998
2 40895   0.0407 279.6262 0000659 357.0120  64.1540  1.00272093 25372
2015-049A               
1 40899U 15049A   22233.97341554  .00004380  00000+0  20610-3 0  9995
2 40899  97.4824 237.6527 0015277 133.3639 310.5110 15.19983092383077
NUDT-PHONESAT           
1 40900U 15049B   22234.25231660  .00027607  00000+0  71746-3 0  9999
2 40900  97.3989 252.7039 0010511  61.3538   1.4616 15.38857065384722
ZDPS 2A                 
1 40901U 15049C   22233.54107100  .00007002  00000+0  28154-3 0  9994
2 40901  97.4601 242.0663 0013545 114.1936 246.0719 15.25148636383373
ZDPS 2B                 
1 40902U 15049D   22234.23694385  .00010570  00000+0  41994-3 0  9999
2 40902  97.4688 240.5254 0013595 109.5229  23.0720 15.25418582383450
XW-2A                   
1 40903U 15049E   22234.17710666  .00021608  00000+0  31212-3 0  9990
2 40903  97.1734 292.8963 0007769 228.6670 215.8502 15.55935097389471
KAITUO 1A               
1 40904U 15049F   22234.22552524  .00004369  00000+0  21552-3 0  9995
2 40904  97.4969 236.1348 0015063 136.0014 356.5998 15.18346596382848
2015-049G               
1 40905U 15049G   22234.23107519  .00002677  00000+0  13913-3 0  9999
2 40905  97.5169 233.3493 0015986 140.0014 348.6296 15.16844817382582
XW-2C                   
1 40906U 15049H   22234.25244419  .00004822  00000+0  22891-3 0  9992
2 40906  97.4949 237.1678 0015337 125.5060 290.1178 15.19622932382916
XW-2D                   
1 40907U 15049J   22234.24675149  .00005514  00000+0  25589-3 0  9996
2 40907  97.4939 237.2027 0014559 120.4308 300.5022 15.20353824382961
LILACSAT-2              
1 40908U 15049K   22234.24085818  .00002378  00000+0  12661-3 0  9997
2 40908  97.5191 234.1923 0016183 143.7761 345.3346 15.16099883382457
XW-2E                   
1 40909U 15049L   22234.25247861  .00008838  00000+0  36127-3 0  9997
2 40909  97.4661 241.8890 0013753 102.3080 314.3812 15.24512838383434
XW-2F                   
1 40910U 15049M   22234.26083039  .00008710  00000+0  36161-3 0  9992
2 40910  97.4739 241.0478 0014993 103.5296 269.2676 15.23976205383207
XW-2B                   
1 40911U 15049N   22234.14588604  .00005331  00000+0  24837-3 0  9991
2 40911  97.4930 237.6823 0014630 122.6009 302.0549 15.20232666382834
KAITUO 1B               
1 40912U 15049P   22234.13855572  .00010472  00000+0  39388-3 0  9991
2 40912  97.4374 245.2733 0014494  73.6120 355.3195 15.27230659383778
COSMOS 2507             
1 40920U 15050A   22233.83017105 -.00000011  00000+0 -15045-3 0  9994
2 40920  82.4893 228.3160 0009681 142.5519 217.6241 12.42890826313545
COSMOS 2508             
1 40921U 15050B   22233.77389823  .00000013  00000+0  23608-4 0  9992
2 40921  82.4850 227.3869 0013666 180.3833 179.7244 12.42895481313522
COSMOS 2509             
1 40922U 15050C   22233.79942549 -.00000010  00000+0 -14630-3 0  9998
2 40922  82.4848 227.4445 0015018 194.8261 165.2386 12.42898303313533
PUJIANG 1 (PJ-1)        
1 40925U 15051A   22234.17991634  .00010059  00000+0  25948-3 0  9990
2 40925  97.1221 236.7216 0010538 223.0239 263.7584 15.39301953386572
TIANWANG 1A (TW-1A)     
1 40928U 15051D   22234.26389096  .00049197  00000+0  50178-3 0  9994
2 40928  97.0363 256.5563 0009143 127.9128 295.5313 15.64901194388515
ASTROSAT                
1 40930U 15052A   22234.12033559  .00001060  00000+0  59062-4 0  9992
2 40930   5.9975  69.9322 0008647   1.4333 358.5819 14.76712160372920
LAPAN-A2                
1 40931U 15052B   22234.16031089  .00000891  00000+0  34748-4 0  9998
2 40931   5.9994  60.3017 0013256  17.4018 342.6546 14.76846661373079
EXACTVIEW 9             
1 40936U 15052G   22233.59829266  .00001322  00000+0  93659-4 0  9997
2 40936   6.0043  68.5667 0010338 356.1043   3.9004 14.77250517372863
BEIDOU 20               
1 40938U 15053A   22233.82304719 -.00000089  00000+0  00000+0 0  9990
2 40938  51.3980 275.1205 0046538 198.9211 248.8944  1.00278578 25364
